IRIDIUM 39              
1 25042U 97069D   25237.93377858  .00000617  00000+0  15600-3 0  9991
2 25042  86.3974 181.2498 0020138  75.4629 284.8807 14.49290245459063
IRIDIUM 38              
1 25043U 97069E   25237.95602324  .00000416  00000+0  13081-3 0  9991
2 25043  86.3985 203.8104 0001433 144.7684 215.3609 14.38165358455989
IRIDIUM 42              
1 25077U 97077A   25237.83897658  .00000395  00000+0  12824-3 0  9990
2 25077  86.3976 210.1105 0001541  97.2975 262.8397 14.36396932451195
IRIDIUM 44              
1 25078U 97077B   25237.95282554  .00000456  00000+0  13771-3 0  9997
2 25078  86.4008 191.8204 0003381 118.9697 241.1842 14.40289656453741
IRIDIUM 45              
1 25104U 97082A   25237.88209375  .00019951  00000+0  66738-3 0  9996
2 25104  86.3608  13.9837 0113190  70.5712 290.7724 15.24782248462650
IRIDIUM 24              
1 25105U 97082B   25237.90534660  .00000477  00000+0  13889-3 0  9990
2 25105  86.3873  50.7050 0010570 197.4754 162.6084 14.42152901453263
IRIDIUM 51              
1 25262U 98018A   25237.86728290  .00036112  00000+0  70035-3 0  9994
2 25262  86.3839  21.2031 0077523 342.1902  17.6638 15.44200275457760
IRIDIUM 57              
1 25273U 98019B   25237.78853735  .00000298  00000+0  95927-4 0  9995
2 25273  86.3951 116.1075 0002070  88.6868 271.4565 14.35931816434773
